IRIDIUM 155             
1 43573U 18061E   23263.56076936  .00000402  00000+0  13660-3 0  9990
2 43573  86.3931 114.9173 0002266  81.3093 278.8359 14.34220901269937
IRIDIUM 154             
1 43574U 18061F   23263.61149998  .00000389  00000+0  13175-3 0  9991
2 43574  86.3936 114.9810 0002109  93.6649 266.4787 14.34222204269992
IRIDIUM 163             
1 43575U 18061G   23263.59247541  .00000391  00000+0  13259-3 0  9998
2 43575  86.3934 114.9354 0002038  88.8482 271.2947 14.34222039269961
IRIDIUM 156             
1 43576U 18061H   23263.70664949  .00000009  00000+0 -36928-5 0  9994
2 43576  86.3930 114.8930 0001994  78.6282 281.5137 14.34218714269962
IRIDIUM 164             
1 43577U 18061J   23263.61784773  .00000394  00000+0  13362-3 0  9994
2 43577  86.3935 114.9556 0001842  86.1445 273.9961 14.34220646270004
IRIDIUM 159             
1 43578U 18061K   23263.58613903  .00000387  00000+0  13129-3 0  9990
2 43578  86.3933 114.9267 0002153  87.1101 273.0341 14.34220647269965
IRIDIUM 180             
1 43922U 19002A   23263.51586262  .00000520  00000+0  17880-3 0  9996
2 43922  86.3957  51.7843 0001956  97.2537 262.8881 14.34214760245561
IRIDIUM 176             
1 43923U 19002B   23263.67434963  .00001863  00000+0  29152-3 0  9990
2 43923  86.6086  51.7523 0002233  89.8147 270.3326 14.72258701252040
IRIDIUM 168             
1 43924U 19002C   23263.50952415  .00000327  00000+0  10980-3 0  9993
2 43924  86.3959  51.8359 0002029  94.7532 265.3896 14.34216748245547
IRIDIUM 173             
1 43925U 19002D   23263.49684549  .00000170  00000+0  53587-4 0  9999
2 43925  86.3957  51.7712 0002116  93.6643 266.4795 14.34217613245526
IRIDIUM 169             
1 43926U 19002E   23263.76201293  .00000202  00000+0  59505-4 0  9993
2 43926  86.4168  83.2944 0004904  58.9502 301.2177 14.38605375246392
IRIDIUM 172             
1 43927U 19002F   23263.49049399  .00000467  00000+0  15978-3 0  9999
2 43927  86.3957  51.7788 0002082  95.6017 264.5416 14.34218252245530
IRIDIUM 175             
1 43928U 19002G   23263.39627008  .00001990  00000+0  31168-3 0  9999
2 43928  86.1524  40.3177 0002216  92.1425 268.0045 14.72243049251997
IRIDIUM 171             
1 43929U 19002H   23263.47146641  .00000055  00000+0  12488-4 0  9994
2 43929  86.3965  51.9821 0001969  95.2647 264.8774 14.34215684245524
IRIDIUM 170             
1 43930U 19002J   23263.68051686  .00001892  00000+0  29611-3 0  9998
2 43930  86.6088  51.7547 0002270  87.7056 272.4421 14.72254899252057
IRIDIUM 167             
1 43931U 19002K   23263.32558693  .00000519  00000+0  17807-3 0  9999
2 43931  86.3956  51.8612 0001946  94.9482 265.1936 14.34220697245504
IRIDIUM 181             
1 56726U 23068S   23263.77253031  .00000199  00000+0  53017-4 0  9997
2 56726  86.8569  92.3255 0001214  54.9183 305.2132 14.43573164 18120
IRIDIUM 177             
1 56727U 23068T   23263.75117046  .00000820  00000+0  10446-3 0  9990
2 56727  86.1926  83.7511 0002180  97.5785 262.5684 14.80225000 18372
IRIDIUM 174             
1 56728U 23068U   23263.74573716  .00000824  00000+0  10490-3 0  9993
2 56728  86.1933  83.8355 0002406  88.8400 271.3097 14.80224822 18373
IRIDIUM 178             
1 56729U 23068V   23263.53721338  .00000770  00000+0  97876-4 0  9990
2 56729  86.5727  88.5777 0002512  93.4494 266.7014 14.80214983 18343
IRIDIUM 179             
1 56730U 23068W   23263.80223049  .00000763  00000+0  96961-4 0  9994
2 56730  86.6735  89.1947 0002433  95.1597 264.9902 14.80215426 18389
